
# Worst residual: 13.72 km
# MJD 58509.000000 (2019 Jan 26  0:00)
WE0913A = DSCOVR object = 2015-007B = NORAD 40391
1 40391U 15007B   19026.49919926  .00000000  00000-0  00000-0 2  3544
2 40391 030.1156 305.1263 8581948 228.1070 134.5458 00.06151266    05

# Worst residual: 11.61 km
# MJD 58510.000000 (2019 Jan 27  0:00)
WE0913A = DSCOVR object = 2015-007B = NORAD 40391
1 40391U 15007B   19027.49919926  .00000000  00000-0  00000-0 2  3545
2 40391 029.8538 304.6389 8590287 228.5616 156.3565 00.06150793    08

# Worst residual: 8.88 km
# MJD 58511.000000 (2019 Jan 28  0:00)
WE0913A = DSCOVR object = 2015-007B = NORAD 40391
1 40391U 15007B   19028.49919926  .00000000  00000-0  00000-0 2  3546
2 40391 029.6291 304.1577 8595589 229.0118 178.2520 00.06152075    08

# Worst residual: 6.03 km
# MJD 58512.000000 (2019 Jan 29  0:00)
WE0913A = DSCOVR object = 2015-007B = NORAD 40391
1 40391U 15007B   19029.49919926  .00000000  00000-0  00000-0 2  3547
2 40391 029.4503 303.7194 8598304 229.4168 200.2531 00.06153826    02

# Worst residual: 5.36 km
# MJD 58513.000000 (2019 Jan 30  0:00)
WE0913A = DSCOVR object = 2015-007B = NORAD 40391
1 40391U 15007B   19030.49919926  .00000000  00000-0  00000-0 2  3549
2 40391 029.3199 303.3531 8599072 229.7440 222.3659 00.06154652    06

# Worst residual: 4.84 km
# MJD 58514.000000 (2019 Jan 31  0:00)
WE0913A = DSCOVR object = 2015-007B = NORAD 40391
1 40391U 15007B   19031.49919926  .00000000  00000-0  00000-0 2  3540
2 40391 029.2353 303.0780 8598656 229.9723 244.5817 00.06153024    07

# Worst residual: 4.76 km
# MJD 58515.000000 (2019 Feb  1  0:00)
WE0913A = DSCOVR object = 2015-007B = NORAD 40391
1 40391U 15007B   19032.49919926  .00000000  00000-0  00000-0 2  3541
2 40391 029.1891 302.9009 8597888 230.0935 266.8760 00.06147232    07

# Worst residual: 7.50 km
# MJD 58516.000000 (2019 Feb  2  0:00)
WE0913A = DSCOVR object = 2015-007B = NORAD 40391
1 40391U 15007B   19033.49919926  .00000000  00000-0  00000-0 2  3542
2 40391 029.1709 302.8148 8597654 230.1154 289.2048 00.06135388    00

# Worst residual: 8.96 km
# MJD 58517.000000 (2019 Feb  3  0:00)
WE0913A = DSCOVR object = 2015-007B = NORAD 40391
1 40391U 15007B   19034.49919926  .00000000  00000-0  00000-0 2  3543
2 40391 029.1681 302.7977 8598750 230.0626 311.5000 00.06115683    02

# Worst residual: 8.35 km
# MJD 58518.000000 (2019 Feb  4  0:00)
WE0913A = DSCOVR object = 2015-007B = NORAD 40391
1 40391U 15007B   19035.49919926  .00000000  00000-0  00000-0 2  3544
2 40391 029.1694 302.8191 8601390 229.9707 333.6667 00.06087548    09

# Worst residual: 5.34 km
# MJD 58519.000000 (2019 Feb  5  0:00)
WE0913A = DSCOVR object = 2015-007B = NORAD 40391
1 40391U 15007B   19036.49919926  .00000000  00000-0  00000-0 2  3545
2 40391 029.1663 302.8460 8604677 229.8767 355.6108 00.06055686    02

# Worst residual: 16.09 km
# MJD 58520.000000 (2019 Feb  6  0:00)
WE0913A = DSCOVR object = 2015-007B = NORAD 40391
1 40391U 15007B   19037.49919926  .00000000  00000-0  00000-0 2  3546
2 40391 029.1364 302.8617 8606776 229.9163 017.3476 00.06033895    05

# Worst residual: 23.73 km
# MJD 58521.000000 (2019 Feb  7  0:00)
WE0913A = DSCOVR object = 2015-007B = NORAD 40391
1 40391U 15007B   19038.49919926  .00000000  00000-0  00000-0 2  3547
2 40391 028.8452 302.7394 8606584 230.2077 038.7632 00.05986748    00

# Worst residual: 20.97 km
# MJD 58522.000000 (2019 Feb  8  0:00)
WE0913A = DSCOVR object = 2015-007B = NORAD 40391
1 40391U 15007B   19039.49919926  .00000000  00000-0  00000-0 2  3548
2 40391 028.2985 302.2456 8595898 230.8184 060.1693 00.05966986    07

# Worst residual: 17.48 km
# MJD 58523.000000 (2019 Feb  9  0:00)
WE0913A = DSCOVR object = 2015-007B = NORAD 40391
1 40391U 15007B   19040.49919926  .00000000  00000-0  00000-0 2  3540
2 40391 027.8115 301.6253 8583317 231.4272 081.8483 00.05971517    06

# Worst residual: 14.59 km
# MJD 58524.000000 (2019 Feb 10  0:00)
WE0913A = DSCOVR object = 2015-007B = NORAD 40391
1 40391U 15007B   19041.49919926  .00000000  00000-0  00000-0 2  3541
2 40391 027.4853 301.1017 8579526 231.8445 103.7093 00.05984055    09

# Worst residual: 13.49 km
# MJD 58525.000000 (2019 Feb 11  0:00)
WE0913A = DSCOVR object = 2015-007B = NORAD 40391
1 40391U 15007B   19042.49919926  .00000000  00000-0  00000-0 2  3542
2 40391 027.2626 300.6748 8587423 232.1253 125.6303 00.05998202    02

# Worst residual: 13.45 km
# MJD 58526.000000 (2019 Feb 12  0:00)
WE0913A = DSCOVR object = 2015-007B = NORAD 40391
1 40391U 15007B   19043.49919926  .00000000  00000-0  00000-0 2  3543
2 40391 027.0855 300.2806 8605911 232.3741 147.5520 00.06012756    08

# Worst residual: 15.50 km
# MJD 58527.000000 (2019 Feb 13  0:00)
WE0913A = DSCOVR object = 2015-007B = NORAD 40391
1 40391U 15007B   19044.49919926  .00000000  00000-0  00000-0 2  3544
2 40391 026.9212 299.8611 8632710 232.6761 169.4482 00.06027786    01

# Worst residual: 18.66 km
# MJD 58528.000000 (2019 Feb 14  0:00)
WE0913A = DSCOVR object = 2015-007B = NORAD 40391
1 40391U 15007B   19045.49919926  .00000000  00000-0  00000-0 2  3545
2 40391 026.7545 299.3745 8665166 233.0909 191.3071 00.06043632    07

# Worst residual: 20.44 km
# MJD 58529.000000 (2019 Feb 15  0:00)
WE0913A = DSCOVR object = 2015-007B = NORAD 40391
1 40391U 15007B   19046.49919926  .00000000  00000-0  00000-0 2  3546
2 40391 026.5823 298.7964 8700420 233.6530 213.1255 00.06060737    01

# Worst residual: 20.85 km
# MJD 58530.000000 (2019 Feb 16  0:00)
WE0913A = DSCOVR object = 2015-007B = NORAD 40391
1 40391U 15007B   19047.49919926  .00000000  00000-0  00000-0 2  3547
2 40391 026.4100 298.1221 8735519 234.3693 234.9107 00.06079630    02

# Worst residual: 19.93 km
# MJD 58531.000000 (2019 Feb 17  0:00)
WE0913A = DSCOVR object = 2015-007B = NORAD 40391
1 40391U 15007B   19048.49919926  .00000000  00000-0  00000-0 2  3548
2 40391 026.2501 297.3739 8767580 235.2121 256.6837 00.06100875    06

# Worst residual: 17.55 km
# MJD 58532.000000 (2019 Feb 18  0:00)
WE0913A = DSCOVR object = 2015-007B = NORAD 40391
1 40391U 15007B   19049.49919926  .00000000  00000-0  00000-0 2  3549
2 40391 026.1190 296.6065 8794090 236.1141 278.4818 00.06124913    01
